ONEWEB-0706             
1 61611U 24188T   25251.07124414  .00000080  00000+0  19191-3 0  9997
2 61611  87.8750  92.5331 0001659 108.2365 251.8943 13.10378012 46436
ONEWEB-0707             
1 61612U 24188U   25251.07788635  .00000456  00000+0  12697-2 0  9999
2 61612  87.8754  92.4979 0001552 107.3963 252.7334 13.10374073 46374
ONEWEB-0708             
1 61613U 24188V   25251.24886129  .00000607  00000+0  17022-2 0  9991
2 61613  87.8767  92.5035 0002036 107.5115 252.6235 13.10371120 46371
